[{"OBJECT_NAME":"YURI (BS)","OBJECT_ID":"1978-039A","EPOCH":"2026-03-14T20:22:01.211232","MEAN_MOTION":1.00199782,"ECCENTRICITY":0.00187685,"INCLINATION":5.7071,"RA_OF_ASC_NODE":284.9331,"ARG_OF_PERICENTER":331.7992,"MEAN_ANOMALY":288.6922,"EPHEMERIS_TYPE":0,"CLASSIFICATION_TYPE":"U","NORAD_CAT_ID":10792,"ELEMENT_SET_NO":999,"REV_AT_EPOCH":11781,"BSTAR":0,"MEAN_MOTION_DOT":-8.0e-8,"MEAN_MOTION_DDOT":0},{"OBJECT_NAME":"MOLNIYA 1-40","OBJECT_ID":"1978-055A","EPOCH":"2026-03-10T12:51:17.656128","MEAN_MOTION":2.00576118,"ECCENTRICITY":0.6803257,"INCLINATION":63.9843,"RA_OF_ASC_NODE":232.0844,"ARG_OF_PERICENTER":275.5244,"MEAN_ANOMALY":16.4668,"EPHEMERIS_TYPE":0,"CLASSIFICATION_TYPE":"U","NORAD_CAT_ID":10925,"ELEMENT_SET_NO":999,"REV_AT_EPOCH":35000,"BSTAR":0,"MEAN_MOTION_DOT":7.65e-6,"MEAN_MOTION_DDOT":0},{"OBJECT_NAME":"TITAN 3C TRANSTAGE R/B","OBJECT_ID":"1978-058B","EPOCH":"2026-03-14T06:45:13.864608","MEAN_MOTION":0.99629937,"ECCENTRICITY":0.14228972,"INCLINATION":10.1366,"RA_OF_ASC_NODE":20.3461,"ARG_OF_PERICENTER":129.2841,"MEAN_ANOMALY":244.3006,"EPHEMERIS_TYPE":0,"CLASSIFICATION_TYPE":"U","NORAD_CAT_ID":10942,"ELEMENT_SET_NO":999,"REV_AT_EPOCH":2582,"BSTAR":0,"MEAN_MOTION_DOT":-3.86e-6,"MEAN_MOTION_DDOT":0},{"OBJECT_NAME":"SL-6 R/B(2)","OBJECT_ID":"1978-055E","EPOCH":"2026-03-05T22:42:05.121504","MEAN_MOTION":1.97084776,"ECCENTRICITY":0.70452402,"INCLINATION":63.9288,"RA_OF_ASC_NODE":245.3582,"ARG_OF_PERICENTER":277.2258,"MEAN_ANOMALY":14.093,"EPHEMERIS_TYPE":0,"CLASSIFICATION_TYPE":"U","NORAD_CAT_ID":10949,"ELEMENT_SET_NO":999,"REV_AT_EPOCH":23813,"BSTAR":-0.011363672,"MEAN_MOTION_DOT":-4.08e-6,"MEAN_MOTION_DDOT":0},{"OBJECT_NAME":"ATLAS CENTAUR R/B","OBJECT_ID":"1978-068B","EPOCH":"2026-03-13T14:34:42.792672","MEAN_MOTION":2.2241495,"ECCENTRICITY":0.71846608,"INCLINATION":21.0366,"RA_OF_ASC_NODE":181.4586,"ARG_OF_PERICENTER":55.9529,"MEAN_ANOMALY":7.602,"EPHEMERIS_TYPE":0,"CLASSIFICATION_TYPE":"U","NORAD_CAT_ID":10976,"ELEMENT_SET_NO":999,"REV_AT_EPOCH":38404,"BSTAR":6.9446934e-5,"MEAN_MOTION_DOT":2.5e-7,"MEAN_MOTION_DDOT":0},{"OBJECT_NAME":"RADUGA 4","OBJECT_ID":"1978-073A","EPOCH":"2026-03-14T21:00:18.695232","MEAN_MOTION":1.00244106,"ECCENTRICITY":0.00118138,"INCLINATION":5.0266,"RA_OF_ASC_NODE":279.7221,"ARG_OF_PERICENTER":34.0931,"MEAN_ANOMALY":282.0699,"EPHEMERIS_TYPE":0,"CLASSIFICATION_TYPE":"U","NORAD_CAT_ID":10987,"ELEMENT_SET_NO":999,"REV_AT_EPOCH":11865,"BSTAR":0,"MEAN_MOTION_DOT":-3.48e-6,"MEAN_MOTION_DDOT":0},{"OBJECT_NAME":"SL-6 R/B(2)","OBJECT_ID":"1978-083D","EPOCH":"2026-03-14T12:32:45.469536","MEAN_MOTION":1.99091001,"ECCENTRICITY":0.67328605,"INCLINATION":65.6857,"RA_OF_ASC_NODE":91.6582,"ARG_OF_PERICENTER":23.0495,"MEAN_ANOMALY":356.7388,"EPHEMERIS_TYPE":0,"CLASSIFICATION_TYPE":"U","NORAD_CAT_ID":11076,"ELEMENT_SET_NO":999,"REV_AT_EPOCH":23803,"BSTAR":0,"MEAN_MOTION_DOT":-1.94e-6,"MEAN_MOTION_DDOT":0},{"OBJECT_NAME":"SL-6 R/B(2)","OBJECT_ID":"1978-095E","EPOCH":"2026-03-12T16:37:00.263424","MEAN_MOTION":2.23598676,"ECCENTRICITY":0.70403944,"INCLINATION":63.9898,"RA_OF_ASC_NODE":289.4875,"ARG_OF_PERICENTER":274.3134,"MEAN_ANOMALY":15.1483,"EPHEMERIS_TYPE":0,"CLASSIFICATION_TYPE":"U","NORAD_CAT_ID":11079,"ELEMENT_SET_NO":999,"REV_AT_EPOCH":9040,"BSTAR":-0.00041160304,"MEAN_MOTION_DOT":3.0e-7,"MEAN_MOTION_DDOT":0},{"OBJECT_NAME":"ANIK B1 (TELESAT 4)","OBJECT_ID":"1978-116A","EPOCH":"2026-03-14T19:02:03.561792","MEAN_MOTION":0.99807941,"ECCENTRICITY":0.00205154,"INCLINATION":9.6697,"RA_OF_ASC_NODE":316.6675,"ARG_OF_PERICENTER":330.6895,"MEAN_ANOMALY":224.5536,"EPHEMERIS_TYPE":0,"CLASSIFICATION_TYPE":"U","NORAD_CAT_ID":11153,"ELEMENT_SET_NO":999,"REV_AT_EPOCH":13508,"BSTAR":0,"MEAN_MOTION_DOT":1.15e-6,"MEAN_MOTION_DDOT":0},{"OBJECT_NAME":"GORIZONT 1","OBJECT_ID":"1978-118A","EPOCH":"2026-03-14T16:44:30.721920","MEAN_MOTION":1.00253797,"ECCENTRICITY":0.30683868,"INCLINATION":12.2373,"RA_OF_ASC_NODE":157.1013,"ARG_OF_PERICENTER":354.6881,"MEAN_ANOMALY":2.7421,"EPHEMERIS_TYPE":0,"CLASSIFICATION_TYPE":"U","NORAD_CAT_ID":11158,"ELEMENT_SET_NO":999,"REV_AT_EPOCH":12199,"BSTAR":0,"MEAN_MOTION_DOT":-2.53e-6,"MEAN_MOTION_DDOT":0},{"OBJECT_NAME":"SCATHA","OBJECT_ID":"1979-007A","EPOCH":"2026-03-14T15:40:07.923936","MEAN_MOTION":1.01530676,"ECCENTRICITY":0.17770305,"INCLINATION":9.9339,"RA_OF_ASC_NODE":278.1017,"ARG_OF_PERICENTER":136.6385,"MEAN_ANOMALY":41.3648,"EPHEMERIS_TYPE":0,"CLASSIFICATION_TYPE":"U","NORAD_CAT_ID":11256,"ELEMENT_SET_NO":999,"REV_AT_EPOCH":14149,"BSTAR":0,"MEAN_MOTION_DOT":-8.1e-7,"MEAN_MOTION_DDOT":0},{"OBJECT_NAME":"EKRAN 3","OBJECT_ID":"1979-015A","EPOCH":"2026-03-14T17:22:35.600160","MEAN_MOTION":1.00324122,"ECCENTRICITY":0.00417646,"INCLINATION":5.3579,"RA_OF_ASC_NODE":282.6555,"ARG_OF_PERICENTER":8.5163,"MEAN_ANOMALY":207.328,"EPHEMERIS_TYPE":0,"CLASSIFICATION_TYPE":"U","NORAD_CAT_ID":11273,"ELEMENT_SET_NO":999,"REV_AT_EPOCH":13406,"BSTAR":0,"MEAN_MOTION_DOT":-1.5e-7,"MEAN_MOTION_DDOT":0},{"OBJECT_NAME":"RADUGA 5","OBJECT_ID":"1979-035A","EPOCH":"2026-03-14T15:43:00.149376","MEAN_MOTION":1.00296481,"ECCENTRICITY":0.00025896,"INCLINATION":5.5303,"RA_OF_ASC_NODE":283.4394,"ARG_OF_PERICENTER":225.3512,"MEAN_ANOMALY":335.2187,"EPHEMERIS_TYPE":0,"CLASSIFICATION_TYPE":"U","NORAD_CAT_ID":11343,"ELEMENT_SET_NO":999,"REV_AT_EPOCH":12841,"BSTAR":0,"MEAN_MOTION_DOT":-1.09e-6,"MEAN_MOTION_DDOT":0},{"OBJECT_NAME":"COSMOS 1109","OBJECT_ID":"1979-058A","EPOCH":"2026-03-14T03:06:50.866560","MEAN_MOTION":2.01385975,"ECCENTRICITY":0.59570508,"INCLINATION":70.64,"RA_OF_ASC_NODE":196.3385,"ARG_OF_PERICENTER":199.5467,"MEAN_ANOMALY":121.4714,"EPHEMERIS_TYPE":0,"CLASSIFICATION_TYPE":"U","NORAD_CAT_ID":11417,"ELEMENT_SET_NO":999,"REV_AT_EPOCH":23192,"BSTAR":0,"MEAN_MOTION_DOT":6.29e-6,"MEAN_MOTION_DDOT":0},{"OBJECT_NAME":"TITAN 3C TRANSTAGE R/B","OBJECT_ID":"1979-053C","EPOCH":"2026-03-13T23:37:09.537024","MEAN_MOTION":0.99447727,"ECCENTRICITY":0.00614469,"INCLINATION":7.0931,"RA_OF_ASC_NODE":295.3333,"ARG_OF_PERICENTER":304.5585,"MEAN_ANOMALY":54.782,"EPHEMERIS_TYPE":0,"CLASSIFICATION_TYPE":"U","NORAD_CAT_ID":11436,"ELEMENT_SET_NO":999,"REV_AT_EPOCH":2559,"BSTAR":0,"MEAN_MOTION_DOT":-3.17e-6,"MEAN_MOTION_DDOT":0},{"OBJECT_NAME":"GORIZONT 2","OBJECT_ID":"1979-062A","EPOCH":"2026-03-14T19:51:14.489856","MEAN_MOTION":1.00236498,"ECCENTRICITY":0.00066384,"INCLINATION":5.9692,"RA_OF_ASC_NODE":286.8276,"ARG_OF_PERICENTER":1.7164,"MEAN_ANOMALY":257.5626,"EPHEMERIS_TYPE":0,"CLASSIFICATION_TYPE":"U","NORAD_CAT_ID":11440,"ELEMENT_SET_NO":999,"REV_AT_EPOCH":13707,"BSTAR":0,"MEAN_MOTION_DOT":-9.5e-7,"MEAN_MOTION_DDOT":0},{"OBJECT_NAME":"WESTAR 3","OBJECT_ID":"1979-072A","EPOCH":"2026-03-14T01:25:34.694112","MEAN_MOTION":0.99949743,"ECCENTRICITY":0.00042267,"INCLINATION":10.4099,"RA_OF_ASC_NODE":321.7516,"ARG_OF_PERICENTER":341.9416,"MEAN_ANOMALY":199.7174,"EPHEMERIS_TYPE":0,"CLASSIFICATION_TYPE":"U","NORAD_CAT_ID":11484,"ELEMENT_SET_NO":999,"REV_AT_EPOCH":13956,"BSTAR":0,"MEAN_MOTION_DOT":-2.88e-6,"MEAN_MOTION_DDOT":0}]
