YURI (BS)               
1 10792U 78039A   26073.84862513 -.00000008  00000+0  00000+0 0  9998
2 10792   5.7071 284.9331 0018768 331.7992 288.6922  1.00199782117817
MOLNIYA 1-40            
1 10925U 78055A   26069.53562102  .00000765  00000+0  00000+0 0  9995
2 10925  63.9843 232.0844 6803257 275.5244  16.4668  2.00576118350004
TITAN 3C TRANSTAGE R/B  
1 10942U 78058B   26073.28141047 -.00000386  00000+0  00000+0 0  9995
2 10942  10.1366  20.3461 1422897 129.2841 244.3006  0.99629937 25821
SL-6 R/B(2)             
1 10949U 78055E   26064.94589261 -.00000408  00000+0 -11364-1 0  9999
2 10949  63.9288 245.3582 7045240 277.2258  14.0930  1.97084776238138
ATLAS CENTAUR R/B       
1 10976U 78068B   26072.60743973  .00000025  00000+0  69447-4 0  9998
2 10976  21.0366 181.4586 7184660  55.9529   7.6020  2.22414950384046
RADUGA 4                
1 10987U 78073A   26073.87521638 -.00000348  00000+0  00000+0 0  9992
2 10987   5.0266 279.7221 0011813  34.0931 282.0699  1.00244106118655
SL-6 R/B(2)             
1 11076U 78083D   26073.52274849 -.00000194  00000+0  00000+0 0  9993
2 11076  65.6857  91.6582 6732860  23.0495 356.7388  1.99091001238036
SL-6 R/B(2)             
1 11079U 78095E   26071.69236416  .00000030  00000+0 -41160-3 0  9998
2 11079  63.9898 289.4875 7040394 274.3134  15.1483  2.23598676 90400
ANIK B1 (TELESAT 4)     
1 11153U 78116A   26073.79309678  .00000115  00000+0  00000+0 0  9996
2 11153   9.6697 316.6675 0020515 330.6895 224.5536  0.99807941135082
GORIZONT 1              
1 11158U 78118A   26073.69757780 -.00000253  00000+0  00000+0 0  9997
2 11158  12.2373 157.1013 3068386 354.6881   2.7421  1.00253797121995
SCATHA                  
1 11256U 79007A   26073.65286949 -.00000081  00000+0  00000+0 0  9993
2 11256   9.9339 278.1017 1777030 136.6385  41.3648  1.01530676141497
EKRAN 3                 
1 11273U 79015A   26073.72402315 -.00000015  00000+0  00000+0 0  9993
2 11273   5.3579 282.6555 0041764   8.5163 207.3280  1.00324122134064
RADUGA 5                
1 11343U 79035A   26073.65486284 -.00000109  00000+0  00000+0 0  9996
2 11343   5.5303 283.4394 0002589 225.3512 335.2187  1.00296481128413
COSMOS 1109             
1 11417U 79058A   26073.12975540  .00000629  00000+0  00000+0 0  9999
2 11417  70.6400 196.3385 5957050 199.5467 121.4714  2.01385975231927
TITAN 3C TRANSTAGE R/B  
1 11436U 79053C   26072.98413816 -.00000317  00000+0  00000+0 0  9996
2 11436   7.0931 295.3333 0061446 304.5585  54.7820  0.99447727 25592
GORIZONT 2              
1 11440U 79062A   26073.82725104 -.00000095  00000+0  00000+0 0  9994
2 11440   5.9692 286.8276 0006638   1.7164 257.5626  1.00236498137078
WESTAR 3                
1 11484U 79072A   26073.05942933 -.00000288  00000+0  00000+0 0  9993
2 11484  10.4099 321.7516 0004226 341.9416 199.7174  0.99949743139566
